IRIDIUM 106             
1 41917U 17003A   24234.82941395  .00000802  00000+0  27935-3 0  9997
2 41917  86.4012   6.1482 0001815  88.7358 271.4046 14.34221929397987
IRIDIUM 103             
1 41918U 17003B   24234.81672827  .00000929  00000+0  32469-3 0  9996
2 41918  86.4018   6.0553 0002553  83.4951 276.6535 14.34211003398009
IRIDIUM 109             
1 41919U 17003C   24234.82308259  .00000101  00000+0  29036-4 0  9992
2 41919  86.4012   6.1010 0002611  96.2728 263.8765 14.34216654397977
IRIDIUM 102             
1 41920U 17003D   24234.79137349  .00000987  00000+0  34535-3 0  9991
2 41920  86.4010   6.0517 0002174  95.3697 264.7747 14.34219171398054
IRIDIUM 105             
1 41921U 17003E   24234.83171830  .00001040  00000+0  36433-3 0  9990
2 41921  86.4019 334.4887 0001913  85.3931 274.7483 14.34230375399915
IRIDIUM 104             
1 41922U 17003F   24235.08312460  .00000807  00000+0  28106-3 0  9993
2 41922  86.4012   5.9624 0002523  90.2607 269.8878 14.34217485398088
IRIDIUM 114             
1 41923U 17003G   24235.08947025  .00000842  00000+0  29356-3 0  9992
2 41923  86.4013   5.9454 0001936  91.5995 268.5423 14.34221464398086
IRIDIUM 108             
1 41924U 17003H   24234.83867194  .00000242  00000+0  79300-4 0  9992
2 41924  86.4013 334.4065 0002067  96.6685 263.4746 14.34214337399885
